ALOS-2                  
1 39766U 14029A   26198.91212240  .00000946  00000+0  13348-3 0  9994
2 39766  97.9233 295.6367 0001606  91.0449 269.0946 14.79472116656122
KAZEOSAT 2              
1 40010U 14033A   26198.94600287 -.00000073  00000+0 -26928-5 0  9991
2 40010  97.5389  36.9308 0007582 209.2956 150.7836 14.85501195653522
HODOYOSHI-4             
1 40011U 14033B   26198.96384661  .00000285  00000+0  36392-4 0  9997
2 40011  97.5457  22.3027 0022838 200.1163 159.9157 14.88192281653383
DEIMOS-2                
1 40013U 14033D   26198.92996494  .00001068  00000+0  10581-3 0  9999
2 40013  97.5781  72.3333 0001242 109.0672 251.0683 14.93799879642319
HODOYOSHI-3             
1 40015U 14033F   26198.90233231  .00000504  00000+0  64066-4 0  9994
2 40015  97.6449   0.7126 0031353 252.5547 107.2240 14.85440372652188
SPOT 7                  
1 40053U 14034A   26198.93288095  .00000048  00000+0  18936-4 0  9996
2 40053  98.0612 260.6301 0001612  94.4289 265.7096 14.60981693641625
SKYSAT-B                
1 40072U 14037D   26198.85478173  .00000585  00000+0  70239-4 0  9999
2 40072  98.3855 159.5727 0005780 164.7180 195.4211 14.88095356650526
WORLDVIEW-3 (WV-3)      
1 40115U 14048A   26198.95967559  .00000336  00000+0  45561-4 0  9995
2 40115  97.8555 273.3664 0001509 151.6753 208.4544 14.85066533646471
GAOFEN-2                
1 40118U 14049A   26198.98687162 -.00000201  00000+0 -19024-4 0  9999
2 40118  98.0093 263.1623 0008413 126.9472 233.2512 14.80927354643795
YAOGAN-21               
1 40143U 14053A   26198.96997080  .00003323  00000+0  12879-3 0  9999
2 40143  97.1455 237.8895 0007426 358.0020   2.1189 15.26780855659653
YAOGAN-22               
1 40275U 14063A   26198.91030631 -.00000024  00000+0  61536-4 0  9992
2 40275 100.7765 350.6989 0006897 119.4588 240.7213 13.15531635563851
ASNARO                  
1 40298U 14070A   26198.91018983  .00002305  00000+0  11202-3 0  9998
2 40298  97.3437 274.1984 0004812  80.3002 279.8777 15.19398695648675
YAOGAN-24               
1 40310U 14072A   26198.92435487 -.00000140  00000+0 -12609-4 0  9998
2 40310  98.1532 336.5245 0014804 160.9978 199.1787 14.76118810628255
CBERS 4                 
1 40336U 14079A   26198.98478856  .00000018  00000+0  20996-4 0  9996
2 40336  98.3512 254.8476 0000677  58.8741 301.2512 14.35516352608378
YAOGAN-26               
1 40362U 14088A   26198.96852563  .00007630  00000+0  14512-3 0  9997
2 40362  97.0654 198.4830 0001420 320.8154  39.2995 15.48510916642460
SMAP                    
1 40376U 15003A   26198.98572802  .00000171  00000+0  42092-4 0  9995
2 40376  98.1284 205.6452 0001615  93.9186 266.2201 14.63390446612128
KOMPSAT-3A              
1 40536U 15014A   26198.94165705  .00020181  00000+0  27636-3 0  9990
2 40536  97.6898 192.5900 0055935  65.9835 294.7259 15.55539887626598
SENTINEL-2A             
1 40697U 15028A   26198.91400405 -.00000152  00000+0 -41527-4 0  9993
2 40697  98.5677 273.3278 0001303  94.5393 265.5939 14.30814033578121
GAOFEN-8                
1 40701U 15030A   26198.95150209  .00013656  00000+0  27171-3 0  9999
2 40701  97.6890  34.1920 0009919  86.7469 273.4914 15.47012998616201
CARBONITE 1 (CBNT-1)    
1 40718U 15032D   26198.93680596  .00001370  00000+0  17173-3 0  9995
2 40718  97.6520  15.7188 0014071 187.6123 172.4881 14.83675122593908
YAOGAN-27               
1 40878U 15040A   26198.96901809 -.00000592  00000+0 -14479-2 0  9999
2 40878 100.1171 184.0186 0008616 139.1810 220.9951 13.16070012521717
GAOFEN-9 01             
1 40894U 15047A   26198.96673696  .00000441  00000+0  60225-4 0  9997
2 40894  97.6263 233.2615 0028262  41.7620 318.5745 14.82938036584758
YAOGAN-28               
1 41026U 15064A   26198.97855906  .00003709  00000+0  13916-3 0  9995
2 41026  97.3116 336.6268 0012026  84.4939 275.7672 15.27780735595385
YAOGAN-29               
1 41038U 15069A   26198.94300491 -.00000406  00000+0 -43220-4 0  9999
2 41038  98.0014 227.6227 0000519   5.7587 354.3632 14.83105933575184
KENT RIDGE 1            
1 41167U 15077B   26198.80899917  .00002264  00000+0  61529-4 0  9996
2 41167  14.9806  38.2217 0008266 311.6047  48.3567 15.23291653585778
GAOFEN-4                
1 41194U 15083A   26198.93040744 -.00000344  00000+0  00000+0 0  9993
2 41194   0.4350  83.7658 0004255 125.4429 167.1757  1.00271336 38832
JASON-3                 
1 41240U 16002A   26198.91537668 -.00000038  00000+0  97149-4 0  9996
2 41240  66.0416  61.2332 0008155 270.6474  89.3610 12.87628772491205
SENTINEL-3A             
1 41335U 16011A   26198.93343549  .00000040  00000+0  34744-4 0  9990
2 41335  98.6235 265.8732 0001334  89.4056 270.7277 14.26740239542446
ZIYUAN 3-02 (ZY 3-02)   
1 41556U 16033A   26198.97192558  .00002712  00000+0  12348-3 0  9998
2 41556  97.3824 274.1546 0014376 175.2628 184.8747 15.21450066562661
CARTOSAT-2C             
1 41599U 16040A   26198.95088375  .00000998  00000+0  50521-4 0  9992
2 41599  97.4465 258.5025 0009352  36.7134 323.4739 15.19274240558380
