OBJECT_NAME,OBJECT_ID,EPOCH,MEAN_MOTION,ECCENTRICITY,INCLINATION,RA_OF_ASC_NODE,ARG_OF_PERICENTER,MEAN_ANOMALY,EPHEMERIS_TYPE,CLASSIFICATION_TYPE,NORAD_CAT_ID,ELEMENT_SET_NO,REV_AT_EPOCH,BSTAR,MEAN_MOTION_DOT,MEAN_MOTION_DDOT
ALOS-2,2014-029A,2026-07-17T21:53:27.375360,14.79472116,.00016067,97.9233,295.6367,91.0449,269.0946,0,U,39766,999,65612,.13348131E-3,.946E-5,0
KAZEOSAT 2,2014-033A,2026-07-17T22:42:14.647968,14.85501195,.00075829,97.5389,36.9308,209.2956,150.7836,0,U,40010,999,65352,-.2692751E-5,-.73E-6,0
HODOYOSHI-4,2014-033B,2026-07-17T23:07:56.347104,14.88192281,.00228383,97.5457,22.3027,200.1163,159.9157,0,U,40011,999,65338,.36392452E-4,.285E-5,0
DEIMOS-2,2014-033D,2026-07-17T22:19:08.970816,14.93799879,.00012421,97.5781,72.3333,109.0672,251.0683,0,U,40013,999,64231,.10581219E-3,.1068E-4,0
HODOYOSHI-3,2014-033F,2026-07-17T21:39:21.511584,14.85440372,.00313533,97.6449,0.7126,252.5547,107.2240,0,U,40015,999,65218,.64066152E-4,.504E-5,0
SPOT 7,2014-034A,2026-07-17T22:23:20.914080,14.60981693,.00016128,98.0612,260.6301,94.4289,265.7096,0,U,40053,999,64162,.18936257E-4,.48E-6,0
SKYSAT-B,2014-037D,2026-07-17T20:30:53.141472,14.88095356,.00057801,98.3855,159.5727,164.7180,195.4211,0,U,40072,999,65052,.70239127E-4,.585E-5,0
WORLDVIEW-3 (WV-3),2014-048A,2026-07-17T23:01:55.970976,14.85066533,.00015095,97.8555,273.3664,151.6753,208.4544,0,U,40115,999,64647,.45560737E-4,.336E-5,0
GAOFEN-2,2014-049A,2026-07-17T23:41:05.707968,14.80927354,.00084138,98.0093,263.1623,126.9472,233.2512,0,U,40118,999,64379,-.19024362E-4,-.201E-5,0
YAOGAN-21,2014-053A,2026-07-17T23:16:45.477120,15.26780855,.00074261,97.1455,237.8895,358.0020,2.1189,0,U,40143,999,65965,.1287896E-3,.3323E-4,0
YAOGAN-22,2014-063A,2026-07-17T21:50:50.465184,13.15531635,.00068973,100.7765,350.6989,119.4588,240.7213,0,U,40275,999,56385,.61536141E-4,-.24E-6,0
ASNARO,2014-070A,2026-07-17T21:50:40.401312,15.19398695,.00048127,97.3437,274.1984,80.3002,279.8777,0,U,40298,999,64867,.11201681E-3,.2305E-4,0
YAOGAN-24,2014-072A,2026-07-17T22:11:04.260768,14.76118810,.00148042,98.1532,336.5245,160.9978,199.1787,0,U,40310,999,62825,-.12608801E-4,-.14E-5,0
CBERS 4,2014-079A,2026-07-17T23:38:05.731584,14.35516352,.00006775,98.3512,254.8476,58.8741,301.2512,0,U,40336,999,60837,.20995926E-4,.18E-6,0
YAOGAN-26,2014-088A,2026-07-17T23:14:40.614432,15.48510916,.00014207,97.0654,198.4830,320.8154,39.2995,0,U,40362,999,64246,.14512327E-3,.763E-4,0
SMAP,2015-003A,2026-07-17T23:39:26.900928,14.63390446,.00016155,98.1284,205.6452,93.9186,266.2201,0,U,40376,999,61212,.42091755E-4,.171E-5,0
KOMPSAT-3A,2015-014A,2026-07-17T22:35:59.169120,15.55539887,.0055935,97.6898,192.5900,65.9835,294.7259,0,U,40536,999,62659,.27636044E-3,.20181E-3,0
SENTINEL-2A,2015-028A,2026-07-17T21:56:09.949920,14.30814033,.00013032,98.5677,273.3278,94.5393,265.5939,0,U,40697,999,57812,-.41526971E-4,-.152E-5,0
GAOFEN-8,2015-030A,2026-07-17T22:50:09.780576,15.47012998,.00099191,97.6890,34.1920,86.7469,273.4914,0,U,40701,999,61620,.27170758E-3,.13656E-3,0
CARBONITE 1 (CBNT-1),2015-032D,2026-07-17T22:29:00.034944,14.83675122,.00140711,97.6520,15.7188,187.6123,172.4881,0,U,40718,999,59390,.17173358E-3,.137E-4,0
YAOGAN-27,2015-040A,2026-07-17T23:15:23.162976,13.16070012,.00086165,100.1171,184.0186,139.1810,220.9951,0,U,40878,999,52171,-.14478664E-2,-.592E-5,0
GAOFEN-9 01,2015-047A,2026-07-17T23:12:06.073344,14.82938036,.00282629,97.6263,233.2615,41.7620,318.5745,0,U,40894,999,58475,.60224784E-4,.441E-5,0
YAOGAN-28,2015-064A,2026-07-17T23:29:07.502784,15.27780735,.0012026,97.3116,336.6268,84.4939,275.7672,0,U,41026,999,59538,.1391581E-3,.3709E-4,0
YAOGAN-29,2015-069A,2026-07-17T22:37:55.624224,14.83105933,.00005197,98.0014,227.6227,5.7587,354.3632,0,U,41038,999,57518,-.43220193E-4,-.406E-5,0
KENT RIDGE 1,2015-077B,2026-07-17T19:24:57.528288,15.23291653,.00082661,14.9806,38.2217,311.6047,48.3567,0,U,41167,999,58577,.61529376E-4,.2264E-4,0
GAOFEN-4,2015-083A,2026-07-17T22:19:47.202816,1.00271336,.00042559,0.4350,83.7658,125.4429,167.1757,0,U,41194,999,3883,0,-.344E-5,0
JASON-3,2016-002A,2026-07-17T21:58:08.545152,12.87628772,.00081557,66.0416,61.2332,270.6474,89.3610,0,U,41240,999,49120,.97149212E-4,-.38E-6,0
SENTINEL-3A,2016-011A,2026-07-17T22:24:08.826336,14.26740239,.00013346,98.6235,265.8732,89.4056,270.7277,0,U,41335,999,54244,.34744251E-4,.4E-6,0
ZIYUAN 3-02 (ZY 3-02),2016-033A,2026-07-17T23:19:34.370112,15.21450066,.00143764,97.3824,274.1546,175.2628,184.8747,0,U,41556,999,56266,.12348061E-3,.2712E-4,0
CARTOSAT-2C,2016-040A,2026-07-17T22:49:16.356000,15.19274240,.00093527,97.4465,258.5025,36.7134,323.4739,0,U,41599,999,55838,.50521086E-4,.998E-5,0
